[Satellite]
VERSION=1.1
NAME=RUBIN-3 & SL-8 R/B
NICKNAME=RUBIN-3 & SL-8 R/B
TLE1=1 27561U 02054C   11059.42363338  .00000108  00000-0  35526-4 0  2199
TLE2=2 27561  97.9505 232.9820 0048343 109.3948 251.2489 14.53871726437773
